[{"OBJECT_NAME":"METOP-SGA1","OBJECT_ID":"2025-172A","EPOCH":"2026-03-09T18:22:16.359168","MEAN_MOTION":14.21429454,"ECCENTRICITY":0.0001154,"INCLINATION":98.6757,"RA_OF_ASC_NODE":130.2282,"ARG_OF_PERICENTER":80.674,"MEAN_ANOMALY":279.4568,"EPHEMERIS_TYPE":0,"CLASSIFICATION_TYPE":"U","NORAD_CAT_ID":65159,"ELEMENT_SET_NO":999,"REV_AT_EPOCH":2966,"BSTAR":3.7676115e-5,"MEAN_MOTION_DOT":3.9e-7,"MEAN_MOTION_DDOT":0},{"OBJECT_NAME":"METEOR 1-5","OBJECT_ID":"1970-047A","EPOCH":"2026-03-09T17:42:10.199520","MEAN_MOTION":14.16157199,"ECCENTRICITY":0.00392283,"INCLINATION":81.2198,"RA_OF_ASC_NODE":333.8443,"ARG_OF_PERICENTER":339.9049,"MEAN_ANOMALY":20.0578,"EPHEMERIS_TYPE":0,"CLASSIFICATION_TYPE":"U","NORAD_CAT_ID":4419,"ELEMENT_SET_NO":999,"REV_AT_EPOCH":87466,"BSTAR":4.4761894e-5,"MEAN_MOTION_DOT":1.02e-6,"MEAN_MOTION_DDOT":0}]
